[{"OBJECT_NAME":"SATORO-T3","OBJECT_ID":"2025-135BP","EPOCH":"2026-03-09T21:54:53.647488","MEAN_MOTION":14.93899407,"ECCENTRICITY":0.00037302,"INCLINATION":97.7584,"RA_OF_ASC_NODE":184.5547,"ARG_OF_PERICENTER":312.3588,"MEAN_ANOMALY":47.7315,"EPHEMERIS_TYPE":0,"CLASSIFICATION_TYPE":"U","NORAD_CAT_ID":64589,"ELEMENT_SET_NO":999,"REV_AT_EPOCH":3908,"BSTAR":0.00028825982,"MEAN_MOTION_DOT":3.008e-5,"MEAN_MOTION_DDOT":0},{"OBJECT_NAME":"SENTINEL-1B","OBJECT_ID":"2016-025A","EPOCH":"2026-03-09T22:22:55.750080","MEAN_MOTION":14.98768491,"ECCENTRICITY":0.00163778,"INCLINATION":98.1047,"RA_OF_ASC_NODE":125.8491,"ARG_OF_PERICENTER":100.1359,"MEAN_ANOMALY":260.1711,"EPHEMERIS_TYPE":0,"CLASSIFICATION_TYPE":"U","NORAD_CAT_ID":41456,"ELEMENT_SET_NO":999,"REV_AT_EPOCH":52891,"BSTAR":0.00015358389,"MEAN_MOTION_DOT":1.79e-5,"MEAN_MOTION_DDOT":0}]
